[{"OBJECT_NAME":"STARLINK-3657","OBJECT_ID":"2022-025AL","EPOCH":"2026-03-09T06:46:29.624448","MEAN_MOTION":15.08838086,"ECCENTRICITY":0.00013489,"INCLINATION":53.219,"RA_OF_ASC_NODE":20.9482,"ARG_OF_PERICENTER":97.1378,"MEAN_ANOMALY":262.9768,"EPHEMERIS_TYPE":0,"CLASSIFICATION_TYPE":"U","NORAD_CAT_ID":51990,"ELEMENT_SET_NO":999,"REV_AT_EPOCH":22127,"BSTAR":1.6046334e-5,"MEAN_MOTION_DOT":-3.3e-7,"MEAN_MOTION_DDOT":0},{"OBJECT_NAME":"OBJECT A","OBJECT_ID":"2024-128A","EPOCH":"2026-03-09T23:23:08.128896","MEAN_MOTION":15.00647164,"ECCENTRICITY":0.00604583,"INCLINATION":61.9933,"RA_OF_ASC_NODE":216.2149,"ARG_OF_PERICENTER":112.7248,"MEAN_ANOMALY":248.0248,"EPHEMERIS_TYPE":0,"CLASSIFICATION_TYPE":"U","NORAD_CAT_ID":60235,"ELEMENT_SET_NO":999,"REV_AT_EPOCH":9111,"BSTAR":0.00034041236,"MEAN_MOTION_DOT":4.284e-5,"MEAN_MOTION_DDOT":0}]
